#aV2023  6  5  0  0  0.00000000     288 DD+AD WGS84 FIT  NGA
## 2265  86400.00000000   300.00000000 60100 0.0000000000000
+   32     1  2  3  4  5  6  7  8  9 10 11 12 13 14 15 16 17
+         18 19 20 21 22 23 24 25 26 27 28 29 30 31 32  0  0
+          0  0  0  0  0  0  0  0  0  0  0  0  0  0  0  0  0
+          0  0  0  0  0  0  0  0  0  0  0  0  0  0  0  0  0
+          0  0  0  0  0  0  0  0  0  0  0  0  0  0  0  0  0
++         2  2  2  2  2  2  2  2  2  2  2  2  2  2  2  2  2
++         2  2  2  2  2  2  2  2  2  2  2  2  2  2  2  0  0
++         0  0  0  0  0  0  0  0  0  0  0  0  0  0  0  0  0
++         0  0  0  0  0  0  0  0  0  0  0  0  0  0  0  0  0
++         0  0  0  0  0  0  0  0  0  0  0  0  0  0  0  0  0
%c cc cc ccc ccc cccc cccc cccc cccc ccccc ccccc ccccc ccccc
%c cc cc ccc ccc cccc cccc cccc cccc ccccc ccccc ccccc ccccc
%f  0.0000000  0.000000000  0.00000000000  0.000000000000000
%f  0.0000000  0.000000000  0.00000000000  0.000000000000000
%i    0    0    0    0      0      0      0      0         0
%i    0    0    0    0      0      0      0      0         0
/*      NGA, ST. LOUIS,MO.                                  
/*   EPHEMERIS COMPUTED FROM 2 DAYS OF DATA                 
/*   EPOCHA v8 SMOOTHER                                     
/*   G2139 IERS2010 SATIGS SATAPC                           
*  2023  6  5 21 35  0.00000000
P  1  -3436.231114  16326.829239 -20913.130010    180.268860                    
V  1 -24097.274420   9259.704529  11712.376796     -0.024954                    
P  2 -12094.018891  18047.226281 -14683.114349   -588.652441                    
V  2 -18268.098073   7387.504630  23518.768454      0.040614                    
P  3   7401.798418  19400.004168 -16765.784312   -280.442783                    
V  3 -17673.958175 -11315.630097 -20947.794855      0.128443                    
P  4    311.890833  25871.529280   5739.922871     60.455774                    
V  4  -3773.986670   6826.348097 -30741.737378      0.101478                    
P  5   8992.067143 -12035.969232  21728.704789   -129.979330                    
V  5  23293.695763  15523.718903   -918.661407     -0.014674                    
P  6  24668.931524  -4124.594838  -9024.229753    586.340118                    
V  6  -9885.375485   6077.992830 -29512.383002     -0.014737                    
P  7  13096.747380  10696.207966  21044.321867    159.969281                    
V  7 -23227.360872  10799.695485   8685.107227     -0.098433                    
P  8  -6538.930116  24687.894189   6430.853425   -125.962332                    
V  8  -2413.830385  -8577.275980  30518.981870     -0.018534                    
P  9   8265.472236  20797.796204  14197.570942   -142.536813                    
V  9  -3856.942961  17914.556188 -23917.736417      0.087458                    
P 10 -23250.364495 -10065.315034  -8309.763639    -39.940624                    
V 10  -7535.458600  -7806.517300  29598.168333     -0.015515                    
P 11  22557.415469 -12789.649256   5660.197407   -224.102702                    
V 11   7644.554928   -110.597436 -30790.083503     -0.147042                    
P 12  -3035.528449 -19223.363485 -18388.408115   -384.963090                    
V 12  18231.116286  13662.951532 -17479.124964     -0.047001                    
P 13  13162.974204 -19714.271323  11587.512790    530.004706                    
V 13  -1388.672866  15170.003343  27175.941656      0.051755                    
P 14  22778.146317  12545.678711  -5779.154487     81.021951                    
V 14   3964.333262   6841.989818  30250.464111      0.125113                    
P 15   3142.789141 -25583.915768   5348.473217     46.168045                    
V 15   4127.807323   7317.595818  30269.112402      0.034880                    
P 16 -13436.804110   7807.299524  21288.373082   -494.364406                    
V 16 -20587.387767 -18499.828378  -5682.640481      0.036784                    
P 17  13761.024129   6030.528287 -21467.310181    717.398776                    
V 17  -5199.272608  27773.303824   4486.693892      0.012891                    
P 18 -15538.811546  -8209.889862  19960.225302   -295.906735                    
V 18  22951.476880 -10604.762371  13349.976119     -0.152557                    
P 19  15573.710709  -2616.081704 -21530.570077    326.644052                    
V 19  -5085.643896  26354.008433  -7253.067453      0.051174                    
P 20  17132.088908  -6737.543290  19110.677691    429.612960                    
V 20  21020.351334  12288.347231 -14723.693098     -0.020893                    
P 21 -11680.507688  17969.044255 -14552.169833    153.343625                    
V 21 -18701.490912   7057.099395  23725.959844     -0.002990                    
P 22 -15492.541753   6872.022622 -19956.587167    493.219598                    
V 22   3844.854134 -26139.898189 -11877.674007      0.060838                    
P 23 -20379.875329 -16830.069943   3375.381991     30.469535                    
V 23   4769.779490    578.763620  31572.074128      0.034678                    
P 24   6662.501097 -18706.688033 -17797.557202   -214.649410                    
V 24  20464.379431  -8743.754443  17621.053926     -0.133343                    
P 25 -14858.813541 -19717.372821 -10452.231562    447.836601                    
V 25  11764.988735   5445.165576 -27573.211681      0.025664                    
P 26 -21798.850731   -421.813601  15279.697109    239.645177                    
V 26 -15256.750704 -12450.374806 -21600.632330     -0.007477                    
P 27 -12575.974910  16984.500427  15576.967449     22.433078                    
V 27    -14.277780 -20503.884099  22392.377614     -0.077601                    
P 28 -24067.883899   3265.649865 -10765.558162     82.277783                    
V 28  11222.472846  -8126.707746 -27613.595476      0.015627                    
P 29  -4482.763796 -22811.051528  12706.813732   -601.874458                    
V 29   4922.608447 -15592.644564 -26228.868081     -0.012351                    
P 30  21563.018296   3150.550980  15475.084722   -512.881908                    
V 30 -16920.630990   9795.633152  21478.144335      0.023713                    
P 31 -24568.134405  10661.517688    647.130123   -217.559469                    
V 31  -1962.457321  -2077.446186 -31314.005449     -0.007925                    
P 32 -14921.663514  -2932.910219 -21601.927587   -493.589461                    
V 32   2836.500995 -27713.968012   1595.246376     -0.086881                    
EOF
